NOAA 13                 
1 22739U 93050A   24290.91709213  .00000637  00000+0  36190-3 0  9996
2 22739  98.6223 243.8825 0010633  67.8822 292.3479 14.13341128607684
